{"type": "FeatureCollection", "features": [ {"type": "Feature", "properties": {"norad_id": 38779, "name": "GSAT-10 (GAGAN/PRN 128)", "group": "gnss", "lat": -0.04192516198870733, "lon": -146.8211555657686, "alt_km": 35784.29098952672, "timestamp": "2025-12-04T03:47:54.787961+00:00", "meta": {"OBJECT_NAME": "GSAT-10 (GAGAN/PRN 128)", "OBJECT_ID": "2012-051B", "EPOCH": "2025-12-03T10:43:30.635904", "MEAN_MOTION": 1.00269107, "ECCENTRICITY": 0.0002475, "INCLINATION": 0.0321, "RA_OF_ASC_NODE": 262.6151, "ARG_OF_PERICENTER": 235.1032, "MEAN_ANOMALY": 178.6611, "EPHEMERIS_TYPE": 0, "CLASSIFICATION_TYPE": "U", "NORAD_CAT_ID": 38779, "ELEMENT_SET_NO": 999, "REV_AT_EPOCH": 4813, "BSTAR": 0, "MEAN_MOTION_DOT": -1.46e-06, "MEAN_MOTION_DDOT": 0}, "tle": {"line1": "1 38779U 12051B   25337.44688236 -.00000146  00000+0  00000+0 0  9994", "line2": "2 38779   0.0321 262.6151 0002475 235.1032 178.6611  1.00269107 48131"}}, "geometry": {"type": "Point", "coordinates": [-146.8211555657686, -0.04192516198870733]}}, {"type": "Feature", "properties": {"norad_id": 38833, "name": "GPS BIIF-3  (PRN 24)", "group": "gnss", "lat": -20.84518625940961, "lon": -12.068022600196329, "alt_km": 20550.709164966098, "timestamp": "2025-12-04T03:47:54.787972+00:00", "meta": {"OBJECT_NAME": "GPS BIIF-3  (PRN 24)", "OBJECT_ID": "2012-053A", "EPOCH": "2025-12-01T21:10:58.228896", "MEAN_MOTION": 2.00564835, "ECCENTRICITY": 0.01754817, "INCLINATION": 53.5559, "RA_OF_ASC_NODE": 151.6834, "ARG_OF_PERICENTER": 63.8436, "MEAN_ANOMALY": 297.9871, "EPHEMERIS_TYPE": 0, "CLASSIFICATION_TYPE": "U", "NORAD_CAT_ID": 38833, "ELEMENT_SET_NO": 999, "REV_AT_EPOCH": 9548, "BSTAR": 0, "MEAN_MOTION_DOT": 1.16e-06, "MEAN_MOTION_DDOT": 0}, "tle": {"line1": "1 38833U 12053A   25335.88261839  .00000116  00000+0  00000+0 0  9995", "line2": "2 38833  53.5559 151.6834 0175481  63.8436 297.9871  2.00564835 95485"}}, "geometry": {"type": "Point", "coordinates": [-12.068022600196329, -20.84518625940961]}}, {"type": "Feature", "properties": {"norad_id": 38857, "name": "GSAT0103 (GALILEO-FM3)", "group": "gnss", "lat": 8.141577720713308, "lon": 112.48624009774797, "alt_km": 23222.964639858223, "timestamp": "2025-12-04T03:47:54.787984+00:00", "meta": {"OBJECT_NAME": "GSAT0103 (GALILEO-FM3)", "OBJECT_ID": "2012-055A", "EPOCH": "2025-12-01T05:01:21.613152", "MEAN_MOTION": 1.70473256, "ECCENTRICITY": 0.00023005, "INCLINATION": 55.6823, "RA_OF_ASC_NODE": 106.9832, "ARG_OF_PERICENTER": 267.1494, "MEAN_ANOMALY": 92.7944, "EPHEMERIS_TYPE": 0, "CLASSIFICATION_TYPE": "U", "NORAD_CAT_ID": 38857, "ELEMENT_SET_NO": 999, "REV_AT_EPOCH": 8163, "BSTAR": 0, "MEAN_MOTION_DOT": 4.2e-07, "MEAN_MOTION_DDOT": 0}, "tle": {"line1": "1 38857U 12055A   25335.20927793  .00000042  00000+0  00000+0 0  9995", "line2": "2 38857  55.6823 106.9832 0002300 267.1494  92.7944  1.70473256 81637"}}, "geometry": {"type": "Point", "coordinates": [112.48624009774797, 8.141577720713308]}}, {"type": "Feature", "properties": {"norad_id": 38953, "name": "BEIDOU-2 G6 (C02)", "group": "gnss", "lat": 2.5695817345920267, "lon": -145.72626435677998, "alt_km": 35813.26168527474, "timestamp": "2025-12-04T03:47:54.787995+00:00", "meta": {"OBJECT_NAME": "BEIDOU-2 G6 (C02)", "OBJECT_ID": "2012-059A", "EPOCH": "2025-12-03T09:01:02.952768", "MEAN_MOTION": 1.00270709, "ECCENTRICITY": 0.0007339, "INCLINATION": 3.9235, "RA_OF_ASC_NODE": 75.5944, "ARG_OF_PERICENTER": 290.1106, "MEAN_ANOMALY": 286.0731, "EPHEMERIS_TYPE": 0, "CLASSIFICATION_TYPE": "U", "NORAD_CAT_ID": 38953, "ELEMENT_SET_NO": 999, "REV_AT_EPOCH": 4794, "BSTAR": 0, "MEAN_MOTION_DOT": -1.59e-06, "MEAN_MOTION_DDOT": 0}, "tle": {"line1": "1 38953U 12059A   25337.37572862 -.00000159  00000+0  00000+0 0  9999", "line2": "2 38953   3.9235  75.5944 0007339 290.1106 286.0731  1.00270709 47944"}}, "geometry": {"type": "Point", "coordinates": [-145.72626435677998, 2.5695817345920267]}}, {"type": "Feature", "properties": {"norad_id": 38977, "name": "LUCH 5B (SDCM/PRN 125)", "group": "gnss", "lat": 8.887853476184201, "lon": 113.37640484532608, "alt_km": 35805.5550411333, "timestamp": "2025-12-04T03:47:54.788010+00:00", "meta": {"OBJECT_NAME": "LUCH 5B (SDCM/PRN 125)", "OBJECT_ID": "2012-061A", "EPOCH": "2025-12-03T09:09:54.984096", "MEAN_MOTION": 1.00268889, "ECCENTRICITY": 0.00076168, "INCLINATION": 10.06, "RA_OF_ASC_NODE": 51.7901, "ARG_OF_PERICENTER": 189.6576, "MEAN_ANOMALY": 312.1231, "EPHEMERIS_TYPE": 0, "CLASSIFICATION_TYPE": "U", "NORAD_CAT_ID": 38977, "ELEMENT_SET_NO": 999, "REV_AT_EPOCH": 4764, "BSTAR": 0, "MEAN_MOTION_DOT": -1.27e-06, "MEAN_MOTION_DDOT": 0}, "tle": {"line1": "1 38977U 12061A   25337.38188639 -.00000127  00000+0  00000+0 0  9999", "line2": "2 38977  10.0600  51.7901 0007616 189.6576 312.1231  1.00268889 47644"}}, "geometry": {"type": "Point", "coordinates": [113.37640484532608, 8.887853476184201]}}, {"type": "Feature", "properties": {"norad_id": 39155, "name": "COSMOS 2485 (747)", "group": "gnss", "lat": -6.455206098443392, "lon": 77.17774792567712, "alt_km": 19166.0982085478, "timestamp": "2025-12-04T03:47:54.788023+00:00", "meta": {"OBJECT_NAME": "COSMOS 2485 (747)", "OBJECT_ID": "2013-019A", "EPOCH": "2025-12-02T06:58:21.505152", "MEAN_MOTION": 2.13102877, "ECCENTRICITY": 0.00245683, "INCLINATION": 65.3079, "RA_OF_ASC_NODE": 80.2187, "ARG_OF_PERICENTER": 229.0905, "MEAN_ANOMALY": 130.6936, "EPHEMERIS_TYPE": 0, "CLASSIFICATION_TYPE": "U", "NORAD_CAT_ID": 39155, "ELEMENT_SET_NO": 999, "REV_AT_EPOCH": 9808, "BSTAR": 0, "MEAN_MOTION_DOT": -1.8e-07, "MEAN_MOTION_DDOT": 0}, "tle": {"line1": "1 39155U 13019A   25336.29052668 -.00000018  00000+0  00000+0 0  9992", "line2": "2 39155  65.3079  80.2187 0024568 229.0905 130.6936  2.13102877 98087"}}, "geometry": {"type": "Point", "coordinates": [77.17774792567712, -6.455206098443392]}}, {"type": "Feature", "properties": {"norad_id": 39166, "name": "GPS BIIF-4  (PRN 27)", "group": "gnss", "lat": -44.30186649677892, "lon": -126.85811710242753, "alt_km": 20291.445167236394, "timestamp": "2025-12-04T03:47:54.788051+00:00", "meta": {"OBJECT_NAME": "GPS BIIF-4  (PRN 27)", "OBJECT_ID": "2013-023A", "EPOCH": "2025-12-02T17:50:49.750368", "MEAN_MOTION": 2.00565046, "ECCENTRICITY": 0.0137297, "INCLINATION": 54.6608, "RA_OF_ASC_NODE": 276.9746, "ARG_OF_PERICENTER": 48.5033, "MEAN_ANOMALY": 312.6627, "EPHEMERIS_TYPE": 0, "CLASSIFICATION_TYPE": "U", "NORAD_CAT_ID": 39166, "ELEMENT_SET_NO": 999, "REV_AT_EPOCH": 9194, "BSTAR": 0, "MEAN_MOTION_DOT": -3.8e-07, "MEAN_MOTION_DDOT": 0}, "tle": {"line1": "1 39166U 13023A   25336.74363137 -.00000038  00000+0  00000+0 0  9997", "line2": "2 39166  54.6608 276.9746 0137297  48.5033 312.6627  2.00565046 91947"}}, "geometry": {"type": "Point", "coordinates": [-126.85811710242753, -44.30186649677892]}}, {"type": "Feature", "properties": {"norad_id": 39199, "name": "IRNSS-1A", "group": "gnss", "lat": 30.51945967398849, "lon": -169.65353260371361, "alt_km": 35744.22275699755, "timestamp": "2025-12-04T03:47:54.788064+00:00", "meta": {"OBJECT_NAME": "IRNSS-1A", "OBJECT_ID": "2013-034A", "EPOCH": "2025-12-02T19:49:26.431104", "MEAN_MOTION": 1.00279053, "ECCENTRICITY": 0.00216608, "INCLINATION": 35.2852, "RA_OF_ASC_NODE": 66.6964, "ARG_OF_PERICENTER": 185.4059, "MEAN_ANOMALY": 172.3398, "EPHEMERIS_TYPE": 0, "CLASSIFICATION_TYPE": "U", "NORAD_CAT_ID": 39199, "ELEMENT_SET_NO": 999, "REV_AT_EPOCH": 4539, "BSTAR": 0, "MEAN_MOTION_DOT": 6.5e-07, "MEAN_MOTION_DDOT": 0}, "tle": {"line1": "1 39199U 13034A   25336.82600036  .00000065  00000+0  00000+0 0  9995", "line2": "2 39199  35.2852  66.6964 0021660 185.4059 172.3398  1.00279053 45393"}}, "geometry": {"type": "Point", "coordinates": [-169.65353260371361, 30.51945967398849]}}, {"type": "Feature", "properties": {"norad_id": 39533, "name": "GPS BIIF-5  (PRN 30)", "group": "gnss", "lat": -40.83514981853142, "lon": 117.68048575312295, "alt_km": 20145.285313353826, "timestamp": "2025-12-04T03:47:54.788076+00:00", "meta": {"OBJECT_NAME": "GPS BIIF-5  (PRN 30)", "OBJECT_ID": "2014-008A", "EPOCH": "2025-12-02T17:43:01.654176", "MEAN_MOTION": 2.00573776, "ECCENTRICITY": 0.00789617, "INCLINATION": 53.6297, "RA_OF_ASC_NODE": 157.3327, "ARG_OF_PERICENTER": 226.3697, "MEAN_ANOMALY": 133.0142, "EPHEMERIS_TYPE": 0, "CLASSIFICATION_TYPE": "U", "NORAD_CAT_ID": 39533, "ELEMENT_SET_NO": 999, "REV_AT_EPOCH": 8574, "BSTAR": 0, "MEAN_MOTION_DOT": 1.12e-06, "MEAN_MOTION_DDOT": 0}, "tle": {"line1": "1 39533U 14008A   25336.73821359  .00000112  00000+0  00000+0 0  9995", "line2": "2 39533  53.6297 157.3327 0078961 226.3697 133.0142  2.00573776 85746"}}, "geometry": {"type": "Point", "coordinates": [117.68048575312295, -40.83514981853142]}}, {"type": "Feature", "properties": {"norad_id": 39617, "name": "ASTRA 5B (EGNOS/PRN 123)", "group": "gnss", "lat": 0.07704149269982537, "lon": 153.68505436478017, "alt_km": 35792.84605302369, "timestamp": "2025-12-04T03:47:54.788087+00:00", "meta": {"OBJECT_NAME": "ASTRA 5B (EGNOS/PRN 123)", "OBJECT_ID": "2014-011B", "EPOCH": "2025-12-02T22:27:31.551840", "MEAN_MOTION": 1.00273626, "ECCENTRICITY": 0.00048267, "INCLINATION": 0.0852, "RA_OF_ASC_NODE": 55.731, "ARG_OF_PERICENTER": 209.4642, "MEAN_ANOMALY": 167.2528, "EPHEMERIS_TYPE": 0, "CLASSIFICATION_TYPE": "U", "NORAD_CAT_ID": 39617, "ELEMENT_SET_NO": 999, "REV_AT_EPOCH": 4269, "BSTAR": 0, "MEAN_MOTION_DOT": 1.57e-06, "MEAN_MOTION_DDOT": 0}, "tle": {"line1": "1 39617U 14011B   25336.93578185  .00000157  00000+0  00000+0 0  9999", "line2": "2 39617   0.0852  55.7310 0004826 209.4642 167.2528  1.00273626 42690"}}, "geometry": {"type": "Point", "coordinates": [153.68505436478017, 0.07704149269982537]}}]}